ORBCOMM FM37            
1 33064U 08031E   25232.83555218  .00001242  00000+0  19057-3 0  9992
2 33064  48.4408  36.2508 0005644 288.8951 170.4399 14.79950884923620
ORBCOMM FM40            
1 33065U 08031F   25232.85444012  .00001719  00000+0  23986-3 0  9999
2 33065  48.4434  19.1034 0006709 302.2995 178.9781 14.82260200923758
VESSELSAT 1             
1 37840U 11058C   25232.86135318  .00000336  00000+0  38326-4 0  9993
2 37840  19.9627  62.5385 0013630 177.7706 182.2760 14.11363673715458
ORBCOMM FM109           
1 40086U 14040A   25234.57834320  .00000310  00000+0  10294-3 0  9997
2 40086  47.0034  62.7194 0002006 279.8798  80.1861 14.58254469590753
ORBCOMM FM107           
1 40087U 14040B   25232.82233985  .00000451  00000+0  13309-3 0  9990
2 40087  47.0051  71.9534 0001437 227.5670 132.5095 14.58327765590570
ORBCOMM FM106           
1 40088U 14040C   25234.52248877  .00000613  00000+0  13373-3 0  9997
2 40088  47.0591 240.7069 0016818  11.2357 348.8906 14.69565257593239
ORBCOMM FM111           
1 40089U 14040D   25234.02173826  .00001899  00000+0  23464-3 0  9993
2 40089  47.0011  84.3566 0029954 148.9571 211.3103 14.86600178600022
ORBCOMM FM104           
1 40090U 14040E   25234.11651665  .00000403  00000+0  12709-3 0  9997
2 40090  47.0048 100.2442 0016026 147.1345 213.0540 14.56721974590231
